STARLINK-30399          
1 57951U 23148S   25317.69999696 -.00003907  00000+0 -12001-3 0  9993
2 57951  53.1603 203.0368 0001414  83.9626 276.1536 15.30156212120664
STARLINK-30713          
1 57952U 23148T   25317.68415485  .00001707  00000+0  69804-4 0  9990
2 57952  53.1596 202.9589 0001125  70.8323 289.2799 15.30173518120661
STARLINK-30700          
1 57953U 23148U   25317.65688191 -.00007449  00000+0 -24000-3 0  9993
2 57953  53.1605 193.1730 0000679  86.8625 273.2454 15.30149602120799
STARLINK-30703          
1 57954U 23148V   25317.36921875  .00002752  00000+0  10503-3 0  9994
2 57954  53.1586 194.4691 0001246 108.4628 251.6508 15.30195400120756
STARLINK-30702          
1 57955U 23148W   25317.37347102 -.00003270  00000+0 -98397-4 0  9997
2 57955  53.1604 194.4921 0001839  82.3121 277.8089 15.30174690120752
SKYKRAFT-3D             
1 57956U 23084BZ  25317.81023963  .00058516  00000+0  10113-2 0  9991
2 57956  97.5913  95.7681 0005120 335.7684  24.3325 15.50773695121515
YAOGAN-33 04            
1 57958U 23149A   25317.86722372  .00002498  00000+0  53996-3 0  9995
2 57958  98.1703 265.4693 0003035 148.7649 211.3731 14.59153387113615
STARLINK-30396          
1 57964U 23151A   25317.82424639 -.00001661  00000+0 -10796-3 0  9990
2 57964  43.0044 248.4466 0000998 282.9722  77.1009 15.02520799118307
STARLINK-30524          
1 57965U 23151B   25317.86188125 -.00002874  00000+0 -19795-3 0  9997
2 57965  43.0078 247.8768 0001375 274.4376  85.6309 15.02505677118310
STARLINK-30521          
1 57966U 23151C   25317.86963991 -.00007649  00000+0 -55229-3 0  9997
2 57966  43.0080 247.9228 0001508 281.5220  78.5453 15.02502111118312
STARLINK-30528          
1 57967U 23151D   25317.86629344 -.00001023  00000+0 -60728-4 0  9990
2 57967  43.0036 247.9004 0001223 281.6362  78.4343 15.02509949118311
STARLINK-30495          
1 57968U 23151E   25317.82979667 -.00001651  00000+0 -10724-3 0  9990
2 57968  43.0022 248.4816 0001099 284.6315  75.4406 15.02518790118306
STARLINK-30494          
1 57970U 23151G   25317.79428266 -.00017521  00000+0 -85697-4 0  9998
2 57970  42.9804 154.6865 0001851 278.1811  81.8849 15.80775116119397
STARLINK-30498          
1 57971U 23151H   25317.50292488  .00001325  00000+0  11312-3 0  9998
2 57971  43.0052 250.3167 0001057 273.5820  86.4901 15.02543452118255
STARLINK-30505          
1 57972U 23151J   25317.85198153 -.00005832  00000+0 -41707-3 0  9991
2 57972  43.0032 248.6314 0000969 264.8200  95.2532 15.02532141118301
STARLINK-30502          
1 57973U 23151K   25317.83978500 -.00002606  00000+0 -17800-3 0  9995
2 57973  43.0064 248.5415 0001675 259.8299 100.2354 15.02514864118306
STARLINK-30489          
1 57974U 23151L   25317.86519582 -.00003239  00000+0 -22498-3 0  9992
2 57974  43.0028 247.8776 0001358 249.6235 110.4461 15.02507671118315
STARLINK-30503          
1 57975U 23151M   25317.84755632  .00000017  00000+0  16298-4 0  9990
2 57975  42.9995 248.5780 0001103 273.0745  86.9971 15.02500284118300
STARLINK-30512          
1 57976U 23151N   25317.81646763 -.00002254  00000+0 -15190-3 0  9998
2 57976  43.0047 248.3138 0001291 277.1273  82.9422 15.02520539118307
STARLINK-30509          
1 57977U 23151P   25317.53818001 -.00002222  00000+0 -14961-3 0  9994
2 57977  42.9977 263.3120 0000790 284.3371  75.7383 15.02511311118100
STARLINK-30511          
1 57978U 23151Q   25317.86388465  .00001868  00000+0  15337-3 0  9998
2 57978  43.0061 261.4520 0001651 278.2299  81.8356 15.02523289118158
STARLINK-30508          
1 57979U 23151R   25317.86057348 -.00000728  00000+0 -38880-4 0  9997
2 57979  43.0037 261.4206 0001228 272.7436  87.3266 15.02518400118155
STARLINK-30504          
1 57980U 23151S   25317.83335647  .00147607  00000+0  50206-2 0  9997
2 57980  42.9992 168.5602 0004436 250.6532 111.3010 15.29141790  5533
STARLINK-30510          
1 57981U 23151T   25317.85723146 -.00001186  00000+0 -72777-4 0  9997
2 57981  43.0029 261.4026 0001617 257.7201 102.3461 15.02529334118157
STARLINK-30507          
1 57982U 23151U   25317.25559911 -.00000270  00000+0 -49224-5 0  9994
2 57982  43.0048 264.6298 0001246 276.9365  83.1336 15.02530778118068
STARLINK-30515          
1 57983U 23151V   25317.58466431  .00001081  00000+0  95090-4 0  9995
2 57983  43.0054 262.7952 0000944 257.5442 102.5295 15.02530252118110
STARLINK-30516          
1 57984U 23151W   25317.24893038  .00003463  00000+0  27127-3 0  9997
2 57984  43.0055 264.5782 0001291 267.2200  92.8495 15.02544473118066
STARLINK-30519          
1 57985U 23151X   25317.57801170 -.00006538  00000+0 -46970-3 0  9995
2 57985  42.9993 262.7463 0000862 268.2494  91.8249 15.02509951118058
YAOGAN-39 03A           
1 57986U 23152A   25317.85837978  .00033347  00000+0  13832-2 0  9999
2 57986  34.9993 186.6785 0005377 351.4229   8.6393 15.22899447117596
YAOGAN-39 03B           
1 57988U 23152C   25317.86033344  .00024074  00000+0  11884-2 0  9999
2 57988  34.9906 198.9120 0011963 108.0372 252.1645 15.16940568117460
YAOGAN-39 03C           
1 57990U 23152E   25317.65976314  .00018808  00000+0  93388-3 0  9990
2 57990  34.9901 200.0866 0003886 354.0763   5.9903 15.16832987117402
STARLINK-30537          
1 57991U 23153A   25317.43011591 -.00002298  00000+0 -15520-3 0  9995
2 57991  43.0040 340.8415 0001342 264.4958  95.5731 15.02510022117284
STARLINK-30534          
1 57992U 23153B   25317.44012353 -.00004847  00000+0 -34434-3 0  9991
2 57992  43.0059 340.9119 0001058 283.7539  76.3186 15.02498313117289
STARLINK-30536          
1 57993U 23153C   25317.42345344 -.00005203  00000+0 -37059-3 0  9992
2 57993  43.0039 340.7904 0001393 255.8940 104.1748 15.02512717117386
STARLINK-30538          
1 57994U 23153D   25317.41680027 -.00008099  00000+0 -58577-3 0  9996
2 57994  43.0025 340.7365 0001469 260.1701  99.8975 15.02496280117288
STARLINK-30517          
1 57995U 23153E   25317.41344758  .00005344  00000+0  41026-3 0  9994
2 57995  43.0029 340.7111 0001378 262.8439  97.2247 15.02543637117382
STARLINK-30523          
1 57997U 23153G   25317.48659738 -.00004725  00000+0 -33517-3 0  9990
2 57997  43.0047 340.4045 0001346 270.6869  89.3819 15.02510144117391
STARLINK-30531          
1 57998U 23153H   25317.44996500 -.00006043  00000+0 -43282-3 0  9993
2 57998  43.0042 340.1326 0001556 247.8874 112.1804 15.02520008117390
STARLINK-30552          
1 57999U 23153J   25317.47328768 -.00001501  00000+0 -96170-4 0  9991
2 57999  43.0047 340.3059 0000602 278.4074  81.6700 15.02502475117397
STARLINK-30545          
1 58000U 23153K   25317.33705315 -.00008418  00000+0 -60992-3 0  9993
2 58000  43.0024 340.9972 0001048 289.7263  70.3466 15.02467760117375
STARLINK-30535          
1 58001U 23153L   25317.40014315 -.00007222  00000+0 -52039-3 0  9990
2 58001  43.0053 340.6112 0001593 272.7972  87.2688 15.02512692117384
STARLINK-30540          
1 58002U 23153M   25317.43677206 -.00007998  00000+0 -57810-3 0  9990
2 58002  43.0043 340.8704 0001292 273.4837  86.5857 15.02507667117282
STARLINK-30546          
1 58003U 23153N   25317.13088603  .00001743  00000+0  14405-3 0  9998
2 58003  43.0059 342.0299 0002019 264.9004  95.1608 15.02542615117341
STARLINK-30539          
1 58004U 23153P   25317.45997015 -.00005901  00000+0 -42248-3 0  9998
2 58004  43.0039 340.2044 0001270 257.8141 102.2559 15.02505419117390
STARLINK-30530          
1 58005U 23153Q   25317.45331596 -.00003258  00000+0 -22637-3 0  9998
2 58005  43.0068 340.1493 0001801 270.2430  89.8206 15.02510704117392
STARLINK-30526          
1 58006U 23153R   25317.06835428  .00002137  00000+0  17312-3 0  9996
2 58006  43.0030 317.2287 0001355 266.6863  93.3824 15.02554007117627
STARLINK-30527          
1 58007U 23153S   25317.85097535  .00005379  00000+0  20490-3 0  9995
2 58007  42.9922 132.5718 0001454 149.1383 210.9554 15.27572711119746
STARLINK-30522          
1 58008U 23153T   25317.34364535 -.00004124  00000+0 -29047-3 0  9993
2 58008  43.0070 341.0424 0002061 258.0057 102.0555 15.02522014117370
STARLINK-30486          
1 58009U 23153U   25317.45663656 -.00007440  00000+0 -53658-3 0  9991
2 58009  43.0039 340.1702 0001369 253.0306 107.0386 15.02514279117299
STARLINK-30520          
1 58010U 23153V   25317.44675282 -.00002772  00000+0 -19023-3 0  9991
2 58010  43.0094 340.9438 0003166 269.3034  90.7446 15.02522807117281
STARLINK-30497          
1 58011U 23153W   25317.44344942 -.00003177  00000+0 -22042-3 0  9993
2 58011  43.0042 340.9189 0001169 281.4376  78.6335 15.02502960117384
STARLINK-30525          
1 58012U 23153X   25317.43345693 -.00006873  00000+0 -49469-3 0  9995
2 58012  43.0076 340.8428 0001363 266.4720  93.5967 15.02500632117380
THEOS-2 (T2V)           
1 58016U 23155A   25317.81797137  .00003456  00000+0  44642-3 0  9997
2 58016  97.8837  26.8312 0001308  92.1316 268.0046 14.81587472113536
FORMOSAT-7R (TRITON)    
1 58017U 23155B   25317.16826469  .00006291  00000+0  65516-3 0  9990
2 58017  97.8544  35.0235 0002567  86.3668 273.7843 14.90163565114049
ANSER FOLLOWER 2        
1 58018U 23155C   25317.85397324  .00033413  00000+0  11467-2 0  9991
2 58018  97.5730  35.6015 0001246 108.5270 251.6105 15.30077926115862
ANSER FOLLOWER 1        
1 58019U 23155D   25317.85378473  .00072727  00000+0  24606-2 0  9996
2 58019  97.5782  36.1272 0002841 115.7128 244.4406 15.30326816115864
NESS                    
1 58020U 23155E   25317.18426420  .00031675  00000+0  13858-2 0  9994
2 58020  97.6097  34.3460 0006414 231.6220 128.4440 15.21978834115543
CSC-2                   
1 58021U 23155F   25317.46663406  .00023336  00000+0  11893-2 0  9995
2 58021  97.5680  29.0619 0004171 263.3997  96.6761 15.16763803115420
CSC-1                   
1 58022U 23155G   25317.12766995  .00009796  00000+0  62727-3 0  9993
2 58022  97.5647  24.8431 0006875 258.6212 101.4244 15.08743636115131
